{"type": "FeatureCollection", "features": [ {"type": "Feature", "properties": {"norad_id": 64786, "name": "TIANZHOU-9", "group": "active", "lat": -41.37071138327812, "lon": -7.240782251305877, "alt_km": 389.65153593814375, "timestamp": "2025-12-01T03:58:49.238442+00:00", "meta": {"OBJECT_NAME": "TIANZHOU-9", "OBJECT_ID": "2025-149A", "EPOCH": "2025-11-30T14:32:09.181248", "MEAN_MOTION": 15.58433763, "ECCENTRICITY": 0.00104995, "INCLINATION": 41.4666, "RA_OF_ASC_NODE": 90.3296, "ARG_OF_PERICENTER": 300.6819, "MEAN_ANOMALY": 59.2984, "EPHEMERIS_TYPE": 0, "CLASSIFICATION_TYPE": "U", "NORAD_CAT_ID": 64786, "ELEMENT_SET_NO": 999, "REV_AT_EPOCH": 25530, "BSTAR": 0.00021218928, "MEAN_MOTION_DOT": 0.00016368, "MEAN_MOTION_DDOT": 0, "GROUP": "active"}, "tle": {"line1": "1 64786U 25149A   25334.60566182  .00016368  00000+0  21219-3 0  9994", "line2": "2 64786  41.4666  90.3296 0010499 300.6819  59.2984 15.58433763255306"}}, "geometry": {"type": "Point", "coordinates": [-7.240782251305877, -41.37071138327812]}}, {"type": "Feature", "properties": {"norad_id": 65077, "name": "CREW DRAGON 11", "group": "active", "lat": -36.90363484971315, "lon": 56.28221551966406, "alt_km": 421.174684681705, "timestamp": "2025-12-01T03:58:49.238452+00:00", "meta": {"OBJECT_NAME": "CREW DRAGON 11", "OBJECT_ID": "2025-166A", "EPOCH": "2025-11-30T13:03:31.260384", "MEAN_MOTION": 15.49206888, "ECCENTRICITY": 0.00036901, "INCLINATION": 51.6312, "RA_OF_ASC_NODE": 202.8529, "ARG_OF_PERICENTER": 187.0517, "MEAN_ANOMALY": 173.042, "EPHEMERIS_TYPE": 0, "CLASSIFICATION_TYPE": "U", "NORAD_CAT_ID": 65077, "ELEMENT_SET_NO": 999, "REV_AT_EPOCH": 214, "BSTAR": 0.00015180088, "MEAN_MOTION_DOT": 7.982e-05, "MEAN_MOTION_DDOT": 0, "GROUP": "active"}, "tle": {"line1": "1 65077U 25166A   25334.54411181  .00007982  00000+0  15180-3 0  9990", "line2": "2 65077  51.6312 202.8529 0003690 187.0517 173.0420 15.49206888  2145"}}, "geometry": {"type": "Point", "coordinates": [56.28221551966406, -36.90363484971315]}}, {"type": "Feature", "properties": {"norad_id": 65304, "name": "DRAGON CRS-33", "group": "active", "lat": -36.90363525633996, "lon": 56.28221614590388, "alt_km": 421.17468472048495, "timestamp": "2025-12-01T03:58:49.238462+00:00", "meta": {"OBJECT_NAME": "DRAGON CRS-33", "OBJECT_ID": "2025-186A", "EPOCH": "2025-11-30T13:03:31.260384", "MEAN_MOTION": 15.49206888, "ECCENTRICITY": 0.00036901, "INCLINATION": 51.6312, "RA_OF_ASC_NODE": 202.8529, "ARG_OF_PERICENTER": 187.0517, "MEAN_ANOMALY": 173.042, "EPHEMERIS_TYPE": 0, "CLASSIFICATION_TYPE": "U", "NORAD_CAT_ID": 65304, "ELEMENT_SET_NO": 999, "REV_AT_EPOCH": 11, "BSTAR": 0.00015180088, "MEAN_MOTION_DOT": 7.982e-05, "MEAN_MOTION_DDOT": 0, "GROUP": "active"}, "tle": {"line1": "1 65304U 25186A   25334.54411181  .00007982  00000+0  15180-3 0  9995", "line2": "2 65304  51.6312 202.8529 0003690 187.0517 173.0420 15.49206888   113"}}, "geometry": {"type": "Point", "coordinates": [56.28221614590388, -36.90363525633996]}}, {"type": "Feature", "properties": {"norad_id": 65586, "name": "PROGRESS-MS 32", "group": "active", "lat": -36.90363566296678, "lon": 56.282216772143734, "alt_km": 421.1746847592667, "timestamp": "2025-12-01T03:58:49.238472+00:00", "meta": {"OBJECT_NAME": "PROGRESS-MS 32", "OBJECT_ID": "2025-204A", "EPOCH": "2025-11-30T13:03:31.260384", "MEAN_MOTION": 15.49206888, "ECCENTRICITY": 0.00036901, "INCLINATION": 51.6312, "RA_OF_ASC_NODE": 202.8529, "ARG_OF_PERICENTER": 187.0517, "MEAN_ANOMALY": 173.042, "EPHEMERIS_TYPE": 0, "CLASSIFICATION_TYPE": "U", "NORAD_CAT_ID": 65586, "ELEMENT_SET_NO": 999, "REV_AT_EPOCH": 27, "BSTAR": 0.00015180088, "MEAN_MOTION_DOT": 7.982e-05, "MEAN_MOTION_DDOT": 0, "GROUP": "active"}, "tle": {"line1": "1 65586U 25204A   25334.54411181  .00007982  00000+0  15180-3 0  9998", "line2": "2 65586  51.6312 202.8529 0003690 187.0517 173.0420 15.49206888   272"}}, "geometry": {"type": "Point", "coordinates": [56.282216772143734, -36.90363566296678]}}, {"type": "Feature", "properties": {"norad_id": 65616, "name": "CYGNUS NG-23", "group": "active", "lat": -36.90363602893096, "lon": 56.282217335759704, "alt_km": 421.17468479416766, "timestamp": "2025-12-01T03:58:49.238481+00:00", "meta": {"OBJECT_NAME": "CYGNUS NG-23", "OBJECT_ID": "2025-208A", "EPOCH": "2025-11-30T13:03:31.260384", "MEAN_MOTION": 15.49206888, "ECCENTRICITY": 0.00036901, "INCLINATION": 51.6312, "RA_OF_ASC_NODE": 202.8529, "ARG_OF_PERICENTER": 187.0517, "MEAN_ANOMALY": 173.042, "EPHEMERIS_TYPE": 0, "CLASSIFICATION_TYPE": "U", "NORAD_CAT_ID": 65616, "ELEMENT_SET_NO": 999, "REV_AT_EPOCH": 22, "BSTAR": 0.00015180088, "MEAN_MOTION_DOT": 7.982e-05, "MEAN_MOTION_DDOT": 0, "GROUP": "active"}, "tle": {"line1": "1 65616U 25208A   25334.54411181  .00007982  00000+0  15180-3 0  9996", "line2": "2 65616  51.6312 202.8529 0003690 187.0517 173.0420 15.49206888   221"}}, "geometry": {"type": "Point", "coordinates": [56.282217335759704, -36.90363602893096]}}, {"type": "Feature", "properties": {"norad_id": 65729, "name": "DRAGONFLY", "group": "active", "lat": 51.090946906383074, "lon": -86.142243228005, "alt_km": 361.08326966089317, "timestamp": "2025-12-01T03:58:49.238491+00:00", "meta": {"OBJECT_NAME": "DRAGONFLY", "OBJECT_ID": "1998-067XH", "EPOCH": "2025-11-30T01:36:53.129376", "MEAN_MOTION": 15.67290907, "ECCENTRICITY": 0.00064505, "INCLINATION": 51.6265, "RA_OF_ASC_NODE": 200.4173, "ARG_OF_PERICENTER": 201.229, "MEAN_ANOMALY": 158.8439, "EPHEMERIS_TYPE": 0, "CLASSIFICATION_TYPE": "U", "NORAD_CAT_ID": 65729, "ELEMENT_SET_NO": 999, "REV_AT_EPOCH": 1117, "BSTAR": 0.0012301051, "MEAN_MOTION_DOT": 0.00136962, "MEAN_MOTION_DDOT": 0, "GROUP": "active"}, "tle": {"line1": "1 65729U 98067XH  25334.06728159  .00136962  00000+0  12301-2 0  9999", "line2": "2 65729  51.6265 200.4173 0006450 201.2290 158.8439 15.67290907 11178"}}, "geometry": {"type": "Point", "coordinates": [-86.142243228005, 51.090946906383074]}}, {"type": "Feature", "properties": {"norad_id": 65730, "name": "1998-067XJ", "group": "active", "lat": 47.77222780292285, "lon": -109.61494674720366, "alt_km": 248.01563215573606, "timestamp": "2025-12-01T03:58:49.238502+00:00", "meta": {"OBJECT_NAME": "1998-067XJ", "OBJECT_ID": "1998-067XJ", "EPOCH": "2025-11-30T18:44:28.007808", "MEAN_MOTION": 16.07771346, "ECCENTRICITY": 0.0011096, "INCLINATION": 51.6135, "RA_OF_ASC_NODE": 191.6004, "ARG_OF_PERICENTER": 229.1502, "MEAN_ANOMALY": 130.855, "EPHEMERIS_TYPE": 0, "CLASSIFICATION_TYPE": "U", "NORAD_CAT_ID": 65730, "ELEMENT_SET_NO": 999, "REV_AT_EPOCH": 1135, "BSTAR": 0.0026017, "MEAN_MOTION_DOT": 0.02083121, "MEAN_MOTION_DDOT": 0.0036478, "GROUP": "active"}, "tle": {"line1": "1 65730U 98067XJ  25334.78087972  .02083121  36478-2  26017-2 0  9991", "line2": "2 65730  51.6135 191.6004 0011096 229.1502 130.8550 16.07771346 11357"}}, "geometry": {"type": "Point", "coordinates": [-109.61494674720366, 47.77222780292285]}}, {"type": "Feature", "properties": {"norad_id": 65731, "name": "1998-067XK", "group": "active", "lat": -24.964471520776435, "lon": 174.18386129137124, "alt_km": 385.47889669545293, "timestamp": "2025-12-01T03:58:49.238512+00:00", "meta": {"OBJECT_NAME": "1998-067XK", "OBJECT_ID": "1998-067XK", "EPOCH": "2025-11-30T20:26:50.094816", "MEAN_MOTION": 15.63022394, "ECCENTRICITY": 0.0005946, "INCLINATION": 51.6292, "RA_OF_ASC_NODE": 197.4168, "ARG_OF_PERICENTER": 178.9897, "MEAN_ANOMALY": 181.111, "EPHEMERIS_TYPE": 0, "CLASSIFICATION_TYPE": "U", "NORAD_CAT_ID": 65731, "ELEMENT_SET_NO": 999, "REV_AT_EPOCH": 1128, "BSTAR": 0.00087111, "MEAN_MOTION_DOT": 0.00081042, "MEAN_MOTION_DDOT": 0, "GROUP": "active"}, "tle": {"line1": "1 65731U 98067XK  25334.85196869  .00081042  00000+0  87111-3 0  9996", "line2": "2 65731  51.6292 197.4168 0005946 178.9897 181.1110 15.63022394 11288"}}, "geometry": {"type": "Point", "coordinates": [174.18386129137124, -24.964471520776435]}}, {"type": "Feature", "properties": {"norad_id": 65732, "name": "RSP-03", "group": "active", "lat": -12.9580936875489, "lon": 25.850480429986145, "alt_km": 370.4773796198833, "timestamp": "2025-12-01T03:58:49.238522+00:00", "meta": {"OBJECT_NAME": "RSP-03", "OBJECT_ID": "1998-067XL", "EPOCH": "2025-11-30T17:57:00.505728", "MEAN_MOTION": 15.65119481, "ECCENTRICITY": 0.0006767, "INCLINATION": 51.6285, "RA_OF_ASC_NODE": 197.4651, "ARG_OF_PERICENTER": 181.4388, "MEAN_ANOMALY": 178.6589, "EPHEMERIS_TYPE": 0, "CLASSIFICATION_TYPE": "U", "NORAD_CAT_ID": 65732, "ELEMENT_SET_NO": 999, "REV_AT_EPOCH": 1128, "BSTAR": 0.00098892, "MEAN_MOTION_DOT": 0.00100324, "MEAN_MOTION_DDOT": 0, "GROUP": "active"}, "tle": {"line1": "1 65732U 98067XL  25334.74792252  .00100324  00000+0  98892-3 0  9996", "line2": "2 65732  51.6285 197.4651 0006767 181.4388 178.6589 15.65119481 11281"}}, "geometry": {"type": "Point", "coordinates": [25.850480429986145, -12.9580936875489]}}, {"type": "Feature", "properties": {"norad_id": 65733, "name": "GHS-01", "group": "active", "lat": -50.354555695420444, "lon": 87.45765323865265, "alt_km": 362.2316544098485, "timestamp": "2025-12-01T03:58:49.238532+00:00", "meta": {"OBJECT_NAME": "GHS-01", "OBJECT_ID": "1998-067XM", "EPOCH": "2025-11-30T19:14:22.058880", "MEAN_MOTION": 15.69357047, "ECCENTRICITY": 0.0006886, "INCLINATION": 51.6284, "RA_OF_ASC_NODE": 196.3266, "ARG_OF_PERICENTER": 204.1704, "MEAN_ANOMALY": 155.897, "EPHEMERIS_TYPE": 0, "CLASSIFICATION_TYPE": "U", "NORAD_CAT_ID": 65733, "ELEMENT_SET_NO": 999, "REV_AT_EPOCH": 1130, "BSTAR": 0.001267, "MEAN_MOTION_DOT": 0.00153923, "MEAN_MOTION_DDOT": 0, "GROUP": "active"}, "tle": {"line1": "1 65733U 98067XM  25334.80164420  .00153923  00000+0  12670-2 0  9996", "line2": "2 65733  51.6284 196.3266 0006886 204.1704 155.8970 15.69357047 11308"}}, "geometry": {"type": "Point", "coordinates": [87.45765323865265, -50.354555695420444]}}]}